<?xml version="1.0" encoding="UTF-8"?>
<kml xmlns="http://earth.google.com/kml/2.0">
<Document>
	<Style id="Line_2_2">
		<LineStyle>
			<color>ff7f00ff</color>
			<width>5</width>
		</LineStyle>
	</Style>
	<Style id="Line_3_3">
		<LineStyle>
			<color>ff005555</color>
			<width>5</width>
		</LineStyle>
	</Style>
	<Style id="POI_1_4">
	</Style>
	<Folder>
		<name>Tracks</name>
		<Placemark>
			<name>GPS0812013/09/25_12:01</name>
			<styleUrl>#Line_2_2</styleUrl>
			<LineString>
				<tessellate>1</tessellate>
				<coordinates>
-9.136305,38.736972,149.996918 -9.136291,38.736978,149.999603 -9.136271,38.736988,150.000565 -9.136290,38.736995,150.002609 -9.136328,38.736997,150.008118 -9.136333,38.736993,149.997864 -9.136363,38.736992,150.000061 -9.136385,38.736994,149.997116 -9.136409,38.736998,150.002289 -9.136409,38.737006,150.008499 -9.136434,38.737016,150.042618 -9.136449,38.737020,150.053314 -9.136467,38.737024,150.066711 -9.136455,38.737032,150.060211 -9.136474,38.737049,150.123795 -9.136534,38.737074,150.291504 -9.136554,38.737089,150.402344 -9.136550,38.737097,150.469910 -9.136549,38.737098,150.512543 -9.136542,38.737099,150.522690 -9.136531,38.737095,150.504028 -9.136518,38.737086,150.445938 -9.136501,38.737077,150.378632 -9.136491,38.737067,150.336853 -9.136473,38.737048,150.212830 -9.136456,38.737029,150.143799 -9.136437,38.737011,150.035675 -9.136427,38.736998,149.964172 -9.136418,38.736987,149.898849 -9.136420,38.736978,149.883209 -9.136431,38.736984,149.898270 -9.136438,38.736989,149.899918 -9.136449,38.736995,149.912476 -9.136471,38.737007,149.988815 -9.136490,38.737008,150.003189 -9.136511,38.737017,150.047043 -9.136531,38.737029,150.104904 -9.136550,38.737040,150.183167 -9.136549,38.737046,150.194595 -9.136543,38.737049,150.207886 -9.136537,38.737045,150.207672 -9.136525,38.737041,150.179428 -9.136514,38.737034,150.158340 -9.136506,38.737027,150.181519 -9.136500,38.737021,150.160599 -9.136477,38.737014,150.161453 -9.136464,38.737005,150.135666 -9.136437,38.736995,150.113754 -9.136435,38.736985,150.108047 -9.136422,38.736975,150.069885 -9.136407,38.736969,150.040588 -9.136404,38.736966,150.012482 -9.136402,38.736966,150.012329 -9.136408,38.736969,150.011444 -9.136412,38.736981,150.007126 -9.136430,38.736991,150.033051 -9.136441,38.737004,150.046844 -9.136454,38.737018,150.081802 -9.136467,38.737028,150.107224 -9.136479,38.737037,150.115387 -9.136495,38.737040,150.100174 -9.136502,38.737043,150.104431 -9.136498,38.737044,150.103546 -9.136491,38.737043,150.118912 -9.136483,38.737040,150.110962 -9.136478,38.737037,150.104889 -9.136468,38.737035,150.085052 -9.136470,38.737040,150.093979 -9.136464,38.737045,150.097977 -9.136445,38.737038,150.070313 -9.136421,38.737026,150.049759 -9.136383,38.737013,150.041962 -9.136364,38.737006,150.031006 -9.136331,38.736992,150.019638 -9.136313,38.736976,149.990036 -9.136316,38.736975,149.977081 -9.136320,38.736971,149.960052 -9.136300,38.736969,149.938721 -9.136288,38.736971,149.934189 -9.136303,38.736985,149.971466 -9.136364,38.737025,150.037720 -9.136394,38.737046,150.092285 -9.136446,38.737082,150.146774 -9.136493,38.737109,150.209808 -9.136517,38.737121,150.221802 -9.136532,38.737136,150.221069 -9.136556,38.737138,150.221085 -9.136550,38.737142,150.240768 -9.136548,38.737137,150.242813 -9.136547,38.737136,150.250717 -9.136547,38.737135,150.252792 -9.136541,38.737128,150.248001 -9.136541,38.737126,150.231491 -9.136560,38.737122,150.202972 -9.136559,38.737127,150.229446 -9.136561,38.737125,150.234146 -9.136578,38.737124,150.250732 -9.136571,38.737117,150.245941 -9.136537,38.737096,150.207886 -9.136497,38.737071,150.173309 -9.136468,38.737067,150.148270 -9.136464,38.737071,150.153030 -9.136466,38.737081,150.150253 -9.136482,38.737093,150.165710 -9.136513,38.737107,150.201141 -9.136545,38.737122,150.218369 -9.136553,38.737128,150.194092 -9.136569,38.737125,150.187256 -9.136570,38.737121,150.166824 -9.136566,38.737117,150.139999 -9.136546,38.737113,150.133362 -9.136510,38.737097,150.118027 -9.136492,38.737095,150.150726 -9.136483,38.737096,150.133072 -9.136489,38.737096,150.181961 -9.136493,38.737089,150.179810 -9.136473,38.737071,150.164795 -9.136447,38.737047,150.173233 -9.136431,38.737022,150.212906 -9.136424,38.736979,150.255829 -9.136428,38.736936,150.288467 -9.136456,38.736888,150.388123 -9.136466,38.736843,150.528763 -9.136467,38.736799,150.679291 -9.136463,38.736762,150.881882 -9.136455,38.736733,151.065247 -9.136440,38.736706,151.179947 -9.136427,38.736695,151.358429 -9.136412,38.736691,151.521896 -9.136394,38.736692,151.577957 -9.136381,38.736687,151.756577 -9.136367,38.736689,151.798309 -9.136355,38.736686,151.847137 -9.136350,38.736668,151.875366 -9.136338,38.736646,151.908096 -9.136322,38.736638,151.920563 -9.136313,38.736624,151.973648 -9.136294,38.736592,152.003830 -9.136284,38.736562,152.042633 -9.136278,38.736534,151.996811 -9.136269,38.736507,152.025650 -9.136274,38.736479,152.023941 -9.136287,38.736457,152.023132 -9.136303,38.736425,152.024658 -9.136326,38.736383,151.994293 -9.136337,38.736365,152.005310 -9.136357,38.736364,152.021378 -9.136369,38.736372,152.047745 -9.136357,38.736423,152.033081 -9.136347,38.736435,152.026138 -9.136432,38.736491,152.036591 -9.136504,38.736432,152.201904 -9.136568,38.736363,152.246994 -9.136638,38.736271,152.280060 -9.137654,38.733735,152.881958 -9.137997,38.733863,152.981735 -9.139391,38.734489,153.361389 -9.139378,38.734433,153.433167 -9.139554,38.734529,153.525818 -9.139675,38.734626,153.591629 -9.139714,38.734663,153.617493 -9.139772,38.734706,153.657715 -9.139997,38.734850,153.763535 -9.140216,38.734992,153.914383 -9.140325,38.735075,154.078079 -9.140422,38.735149,156.566101 -9.140460,38.735212,159.428314 -9.140495,38.735278,162.123505 -9.140504,38.735339,164.681015 -9.140446,38.735447,167.117493 -9.140419,38.735532,169.435043 -9.141562,38.737541,152.972504 -9.141573,38.737592,140.778671 -9.141589,38.737651,139.788132 -9.141599,38.737636,139.218994 -9.141612,38.737642,139.148239 -9.141609,38.737654,139.344315 -9.141608,38.737648,139.493866 -9.141597,38.737658,139.688782 -9.141592,38.737659,139.665573 -9.141588,38.737656,139.579208 -9.141586,38.737661,139.257355 -9.141583,38.737662,139.041992 -9.141584,38.737661,139.029053 -9.141584,38.737659,139.017242 -9.141585,38.737658,139.008560 -9.141586,38.737658,139.005569 -9.141586,38.737660,139.002350 -9.141587,38.737661,138.997467 -9.141588,38.737663,138.987610 -9.141589,38.737665,138.975922 -9.141590,38.737668,138.963821 -9.141591,38.737671,138.952805 -9.141592,38.737674,138.945969 -9.141594,38.737678,138.942200 -9.141597,38.737692,138.787582 -9.141600,38.737698,138.767639 -9.141603,38.737703,138.769470 -9.141606,38.737706,138.769653 -9.141613,38.737707,138.771149 -9.141645,38.737672,138.593567 -9.141636,38.737481,136.990189 -9.141662,38.737384,136.248474 -9.141708,38.737331,136.057556 -9.141773,38.737297,135.887817 -9.141844,38.737270,135.729126 -9.141913,38.737246,135.499252 -9.141990,38.737228,135.110992 -9.142071,38.737222,134.571396 -9.142143,38.737204,134.208359 -9.142210,38.737195,134.076340 -9.142266,38.737201,133.986618 -9.142318,38.737233,133.842987 -9.142367,38.737272,133.509476 -9.142399,38.737307,133.367218 -9.142423,38.737322,133.314392 -9.142438,38.737330,133.241150 -9.142454,38.737342,133.201447 -9.142488,38.737380,133.117813 -9.142515,38.737398,133.415939 -9.142534,38.737406,133.112686 -9.142551,38.737419,132.927704 -9.142562,38.737423,132.767838 -9.142579,38.737421,132.787064 -9.142628,38.737415,132.820007 -9.142670,38.737408,132.491394 -9.142718,38.737382,132.108902 -9.142774,38.737383,131.732285 -9.142831,38.737407,131.192413 -9.142879,38.737427,130.768326 -9.142942,38.737453,130.053070 -9.143012,38.737476,129.524063 -9.143072,38.737460,129.779007 -9.143149,38.737431,130.814087 -9.143288,38.737418,131.051697 -9.143385,38.737409,130.994385 -9.143413,38.737399,130.538452 -9.143449,38.737406,131.910477 -9.143502,38.737423,133.421478 -9.143563,38.737447,134.701584 -9.143628,38.737456,135.184891 -9.143724,38.737438,136.016281 -9.143794,38.737429,136.141342 -9.143838,38.737425,136.353226 -9.143880,38.737424,136.134262 -9.143923,38.737435,136.296631 -9.143977,38.737477,137.663239 -9.144032,38.737506,138.978607 -9.144078,38.737525,140.050323 -9.144114,38.737522,140.355255 -9.144136,38.737528,139.756302 -9.144161,38.737537,138.675827 -9.144179,38.737522,138.714355 -9.144188,38.737523,138.243134 -9.144202,38.737528,137.727432 -9.144211,38.737534,137.278015 -9.144213,38.737541,137.462418 -9.144218,38.737541,137.177048 -9.144221,38.737541,136.969864 -9.144224,38.737541,136.822571 -9.144226,38.737541,136.712250 -9.144228,38.737540,136.626221 -9.144230,38.737538,136.557343 -9.144232,38.737535,136.502777 -9.144235,38.737534,136.459137 -9.144237,38.737533,136.427307 -9.144239,38.737533,136.395798 -9.144242,38.737533,136.361526 -9.144243,38.737534,136.327667 -9.144243,38.737537,136.316452 -9.144246,38.737539,136.313950 -9.144252,38.737539,136.300613 -9.144261,38.737538,136.264420 -9.144281,38.737528,136.596771 -9.144300,38.737526,136.700043 -9.144316,38.737524,137.342545 -9.144338,38.737522,137.837296 -9.144365,38.737516,138.395706 -9.144386,38.737517,138.583176 -9.144410,38.737516,138.139893 -9.144437,38.737517,137.840546 -9.144459,38.737504,137.882065 -9.144468,38.737496,137.991425 -9.144474,38.737492,138.479721 -9.144484,38.737498,138.737549 -9.144488,38.737505,138.808945 -9.144494,38.737511,138.994431 -9.144503,38.737511,139.361786 -9.144505,38.737507,139.606644 -9.144505,38.737506,139.617416 -9.144504,38.737505,139.622574 -9.144504,38.737505,139.630310 -9.144504,38.737506,139.634842 -9.144503,38.737506,139.638000 -9.144501,38.737506,139.636444 -9.144501,38.737507,139.640457 -9.144515,38.737510,139.709198 -9.144535,38.737506,139.658356 -9.144550,38.737501,139.419479 -9.144560,38.737499,139.504654 -9.144569,38.737492,138.906296 -9.144590,38.737494,138.791473 -9.144618,38.737503,138.223282 -9.144648,38.737503,137.915894 -9.144677,38.737487,137.754135 -9.144711,38.737472,137.511307 -9.144753,38.737469,137.136612 -9.144811,38.737469,136.361954 -9.144873,38.737463,136.008331 -9.144927,38.737455,135.818771 -9.144994,38.737435,135.963715 -9.145072,38.737418,136.050964 -9.145149,38.737395,136.444870 -9.145238,38.737357,137.085037 -9.145334,38.737331,137.097885 -9.145431,38.737308,136.744095 -9.145537,38.737283,136.631714 -9.145643,38.737267,136.957352 -9.145751,38.737249,136.628555 -9.145867,38.737223,136.907883 -9.145980,38.737208,136.992996 -9.146091,38.737200,137.245972 -9.146190,38.737191,137.191864 -9.146294,38.737191,137.496155 -9.146404,38.737186,138.018417 -9.146525,38.737184,138.444153 -9.146632,38.737198,138.352097 -9.146729,38.737176,138.185989 -9.146835,38.737188,138.217148 -9.146943,38.737188,138.089539 -9.147023,38.737201,137.531174 -9.147081,38.737192,136.350769 -9.147124,38.737185,135.812561 -9.147163,38.737173,135.781738 -9.147188,38.737161,136.057724 -9.147204,38.737158,136.015091 -9.147217,38.737145,135.939758 -9.147225,38.737128,135.985626 -9.147237,38.737094,136.294556 -9.147248,38.737072,137.301071 -9.147249,38.737067,137.319809 -9.147251,38.737061,137.345856 -9.147252,38.737056,137.366440 -9.147252,38.737050,137.385208 -9.147253,38.737045,137.399017 -9.147253,38.737041,137.410217 -9.147252,38.737036,137.419373 -9.147252,38.737032,137.443848 -9.147252,38.737029,137.453049 -9.147252,38.737025,137.471024 -9.147253,38.737021,137.494507 -9.147254,38.737018,137.516281 -9.147255,38.737014,137.536026 -9.147257,38.737010,137.534164 -9.147257,38.737006,137.547165 -9.147258,38.737002,137.553329 -9.147259,38.736998,137.552826 -9.147259,38.736994,137.557129 -9.147259,38.736991,137.567627 -9.147258,38.736987,137.577560 -9.147258,38.736984,137.576050 -9.147257,38.736981,137.575592 -9.147257,38.736977,137.572342 -9.147256,38.736973,137.573257 -9.147256,38.736970,137.571136 -9.147254,38.736967,137.569809 -9.147252,38.736965,137.572632 -9.147250,38.736962,137.574203 -9.147250,38.736960,137.570679 -9.147250,38.736957,137.561676 -9.147250,38.736954,137.552399 -9.147250,38.736950,137.540924 -9.147250,38.736947,137.529907 -9.147250,38.736945,137.525818 -9.147249,38.736942,137.522446 -9.147249,38.736939,137.523163 -9.147249,38.736937,137.525146 -9.147249,38.736934,137.522644 -9.147250,38.736932,137.520432 -9.147250,38.736930,137.510025 -9.147250,38.736928,137.504715 -9.147250,38.736926,137.500290 -9.147250,38.736924,137.495728 -9.147250,38.736923,137.493515 -9.147249,38.736922,137.491898 -9.147249,38.736921,137.483322 -9.147251,38.736920,137.483612 -9.147258,38.736918,137.482788 -9.147290,38.736932,138.032486 -9.147340,38.736941,138.493210 -9.147394,38.736949,138.684509 -9.147460,38.736970,139.587280 -9.147511,38.736911,139.818954 -9.147581,38.736900,140.316925 -9.147662,38.736887,140.679565 -9.147752,38.736869,141.223450 -9.147845,38.736856,141.355957 -9.147942,38.736856,141.321396 -9.148053,38.736846,141.053802 -9.148167,38.736833,141.054291 -9.148284,38.736820,141.117783 -9.148414,38.736804,140.278900 -9.148544,38.736791,138.714905 -9.148671,38.736788,137.581390 -9.148797,38.736778,136.378082 -9.148927,38.736765,134.933640 -9.149048,38.736758,133.176926 -9.149169,38.736763,132.096329 -9.149290,38.736707,132.260941 -9.149419,38.736666,132.335922 -9.149535,38.736639,132.140854 -9.149645,38.736619,131.759903 -9.149746,38.736606,131.368011 -9.149844,38.736590,130.953873 -9.149926,38.736578,130.431030 -9.149998,38.736575,129.985428 -9.150058,38.736578,129.655457 -9.150119,38.736585,129.248901 -9.150189,38.736584,129.031433 -9.150242,38.736566,129.238556 -9.150284,38.736558,129.442978 -9.150344,38.736564,130.068130 -9.150414,38.736566,130.489700 -9.150483,38.736576,130.614655 -9.150567,38.736577,130.779221 -9.150659,38.736555,130.405197 -9.150762,38.736530,130.093063 -9.150884,38.736497,130.645432 -9.150998,38.736475,131.112167 -9.151096,38.736473,130.990540 -9.151199,38.736475,130.660080 -9.151314,38.736478,131.597565 -9.151411,38.736428,132.105804 -9.151521,38.736445,132.336395 -9.151596,38.736398,131.979614 -9.151662,38.736349,132.116425 -9.151730,38.736328,131.604523 -9.151798,38.736315,130.439636 -9.151858,38.736309,129.082535 -9.151928,38.736310,130.086990 -9.151992,38.736308,129.300583 -9.152066,38.736337,127.809364 -9.152118,38.736379,127.877472 -9.152161,38.736430,128.326096 -9.152192,38.736505,127.189728 -9.152212,38.736581,127.367416 -9.152224,38.736654,127.449425 -9.152256,38.736721,127.414688 -9.152274,38.736790,127.739685 -9.152273,38.736869,127.873909 -9.152280,38.736933,127.270737 -9.152302,38.736986,127.309334 -9.152324,38.737031,128.161133 -9.152347,38.737068,127.509796 -9.152357,38.737089,128.771896 -9.152366,38.737101,128.983139 -9.152381,38.737107,129.358658 -9.152396,38.737107,130.179016 -9.152410,38.737114,130.997894 -9.152423,38.737124,130.869919 -9.152435,38.737146,130.620667 -9.152450,38.737173,130.994461 -9.152458,38.737205,131.229813 -9.152464,38.737241,130.976120 -9.152467,38.737278,130.676620 -9.152465,38.737314,130.597275 -9.152473,38.737352,131.119522 -9.152472,38.737391,131.616455 -9.152476,38.737430,131.814468 -9.152474,38.737458,132.155457 -9.152474,38.737475,132.200577 -9.152476,38.737485,132.339722 -9.152465,38.737474,132.432312 -9.152454,38.737473,132.101257 -9.152451,38.737468,132.200424 -9.152451,38.737468,132.234024 -9.152452,38.737469,132.268280 -9.152451,38.737469,132.301163 -9.152451,38.737469,132.332764 -9.152451,38.737468,132.355621 -9.152451,38.737468,132.385269 -9.152451,38.737467,132.418945 -9.152451,38.737467,132.455688 -9.152451,38.737467,132.505539 -9.152451,38.737466,132.557846 -9.152451,38.737466,132.619736 -9.152451,38.737466,132.684586 -9.152452,38.737466,132.760132 -9.152452,38.737465,132.847580 -9.152452,38.737465,132.957306 -9.152452,38.737465,133.061707 -9.152452,38.737464,133.191681 -9.152452,38.737464,133.311401 -9.152452,38.737464,133.441757 -9.152452,38.737463,133.569382 -9.152453,38.737463,133.703140 -9.152453,38.737463,133.835907 -9.152453,38.737462,133.964462 -9.152453,38.737462,134.096420 -9.152454,38.737461,134.238831 -9.152454,38.737461,134.389740 -9.152454,38.737461,134.542068 -9.152455,38.737460,134.702011 -9.152455,38.737460,134.870789 -9.152456,38.737460,135.055695 -9.152456,38.737459,135.251617 -9.152456,38.737459,135.449997 -9.152457,38.737459,135.645889 -9.152458,38.737458,135.861710 -9.152458,38.737458,136.075653 -9.152458,38.737458,136.298080 -9.152459,38.737457,136.539032 -9.152459,38.737457,136.795532 -9.152459,38.737457,137.057724 -9.152459,38.737456,137.324844 -9.152458,38.737455,137.592239 -9.152458,38.737454,137.854340 -9.152457,38.737454,138.116531 -9.152457,38.737453,138.390839 -9.152457,38.737452,138.653778 -9.152457,38.737451,138.913208 -9.152456,38.737451,139.159882 -9.152456,38.737450,139.396667 -9.152456,38.737450,139.635208 -9.152456,38.737449,139.868912 -9.152456,38.737449,140.098541 -9.152456,38.737449,140.317993 -9.152456,38.737448,140.523880 -9.152456,38.737448,140.724411 -9.152457,38.737448,140.915894 -9.152457,38.737447,141.103195 -9.152458,38.737447,141.294250 -9.152458,38.737447,141.491531 -9.152459,38.737446,141.691528 -9.152460,38.737446,141.891266 -9.152461,38.737446,142.088776 -9.152462,38.737446,142.287781 -9.152462,38.737446,142.482544 -9.152463,38.737446,142.678329 -9.152464,38.737446,142.880066 -9.152465,38.737445,143.081573 -9.152465,38.737445,143.284698 -9.152466,38.737445,143.490158 -9.152466,38.737445,143.689713 -9.152465,38.737448,143.917542 -9.152464,38.737466,144.097885 -9.152469,38.737498,144.027908 -9.152483,38.737543,143.038574 -9.152491,38.737595,143.332794 -9.152506,38.737656,143.354401 -9.152519,38.737719,142.284439 -9.152520,38.737777,141.796722 -9.152537,38.737841,142.120392 -9.152548,38.737899,142.168091 -9.152562,38.737953,141.904938 -9.152562,38.738015,141.198349 -9.152568,38.738080,141.283707 -9.152587,38.738152,142.185486 -9.152618,38.738218,143.617126 -9.152656,38.738283,144.745758 -9.152687,38.738341,143.648071 -9.152714,38.738392,141.542923 -9.152740,38.738434,140.610291 -9.152757,38.738472,139.661530 -9.152780,38.738504,138.884033 -9.152801,38.738530,138.645569 -9.152819,38.738552,138.821945 -9.152830,38.738565,139.046860 -9.152839,38.738578,139.283768 -9.152842,38.738583,139.082794 -9.152840,38.738586,139.311661 -9.152831,38.738588,139.256805 -9.152827,38.738588,139.276810 -9.152827,38.738587,139.341949 -9.152828,38.738587,139.393600 -9.152828,38.738586,139.435898 -9.152829,38.738585,139.481461 -9.152821,38.738583,139.790009 -9.152817,38.738581,140.331253 -9.152815,38.738580,140.836685 -9.152816,38.738577,141.570251 -9.152817,38.738574,142.107681 -9.152817,38.738573,142.178085 -9.152818,38.738570,142.253174 -9.152818,38.738569,142.443497 -9.152818,38.738568,142.508423 -9.152819,38.738567,142.577744 -9.152819,38.738567,142.647430 -9.152819,38.738566,142.719543 -9.152820,38.738565,142.792068 -9.152820,38.738565,142.867569 -9.152831,38.738558,143.630295 -9.152834,38.738557,143.818100 -9.152846,38.738551,144.272125 -9.152855,38.738548,144.341125 -9.152860,38.738545,144.817993 -9.152862,38.738544,144.947861 -9.152866,38.738545,145.238342 -9.152869,38.738549,145.577576 -9.152871,38.738550,145.686951 -9.152876,38.738546,145.923019 -9.152878,38.738545,145.992813 -9.152879,38.738544,146.057083 -9.152879,38.738543,146.113831 -9.152880,38.738543,146.169357 -9.152880,38.738542,146.217712 -9.152881,38.738541,146.256287 -9.152881,38.738541,146.287628 -9.152881,38.738540,146.313705 -9.152881,38.738540,146.338608 -9.152881,38.738539,146.365967 -9.152882,38.738539,146.392853 -9.152883,38.738538,146.414871 -9.152884,38.738537,146.433685 -9.152884,38.738537,146.450958 -9.152884,38.738537,146.463760 -9.152883,38.738537,146.478653 -9.152883,38.738537,146.490372 -9.152883,38.738536,146.498489 -9.152882,38.738537,146.575592 -9.152880,38.738538,146.720444 -9.152879,38.738538,146.687958 -9.152873,38.738539,146.629883 -9.152873,38.738539,146.621613 -9.152873,38.738538,146.620621 -9.152873,38.738538,146.621185 -9.152873,38.738538,146.619598 -9.152873,38.738537,146.615906 -9.152873,38.738537,146.621201 -9.152874,38.738536,146.615967 -9.152874,38.738536,146.609711 -9.152876,38.738542,146.623856 -9.152881,38.738565,146.433472 -9.152906,38.738593,146.216812 -9.152939,38.738632,145.080917 -9.152961,38.738675,143.626022 -9.152991,38.738709,142.815292 -9.153020,38.738741,142.482788 -9.153054,38.738773,142.235947 -9.153087,38.738807,142.029221 -9.153125,38.738841,141.267380 -9.153171,38.738870,141.506790 -9.153222,38.738888,141.839554 -9.153278,38.738899,142.001572 -9.153332,38.738902,141.159119 -9.153377,38.738902,139.146713 -9.153451,38.738876,138.663055 -9.153510,38.738836,137.896637 -9.153576,38.738801,137.800171 -9.153633,38.738765,137.730270 -9.153679,38.738724,137.540466 -9.153721,38.738678,137.505508 -9.153765,38.738627,137.554184 -9.153813,38.738584,137.664093 -9.153844,38.738533,137.723129 -9.153870,38.738482,137.839584 -9.153893,38.738451,138.037140 -9.153904,38.738420,138.233597 -9.153913,38.738412,138.243027 -9.153925,38.738401,138.516510 -9.153930,38.738391,138.688751 -9.153939,38.738391,138.918472 -9.153950,38.738391,139.263107 -9.153964,38.738394,139.706650 -9.153970,38.738395,139.895416 -9.153972,38.738393,140.027359 -9.153974,38.738393,140.130371 -9.153977,38.738392,140.208725 -9.153979,38.738391,140.284409 -9.153983,38.738388,140.361542 -9.154003,38.738368,140.556183 -9.154031,38.738338,140.595337 -9.154060,38.738306,140.686081 -9.154103,38.738258,140.746445 -9.154184,38.738217,141.747910 -9.154283,38.738193,143.466904 -9.154355,38.738161,144.203049 -9.154399,38.738115,144.845779 -9.154440,38.738061,145.386993 -9.154470,38.738001,145.936203 -9.154511,38.737923,146.904541 -9.154603,38.737873,149.411545 -9.154642,38.737799,151.085892 -9.154685,38.737721,152.736954 -9.154732,38.737643,154.581772 -9.154774,38.737571,156.013702 -9.154827,38.737504,157.606277 -9.154822,38.737405,160.259766 -9.154823,38.737317,162.704620 -9.154866,38.737259,164.174454 -9.154922,38.737215,164.986359 -9.154987,38.737181,165.455185 -9.155065,38.737160,164.792572 -9.155150,38.737149,165.198593 -9.155246,38.737159,164.313034 -9.155356,38.737190,162.374191 -9.155510,38.737239,162.415100 -9.155627,38.737286,161.091888 -9.155783,38.737361,158.423691 -9.155950,38.737448,155.505814 -9.156063,38.737513,154.723450 -9.156152,38.737565,152.585144 -9.156246,38.737611,151.026001 -9.156325,38.737655,149.508316 -9.156389,38.737687,148.511124 -9.156447,38.737718,147.690353 -9.156502,38.737749,146.862915 -9.156545,38.737772,146.397537 -9.156578,38.737793,146.322769 -9.156603,38.737814,145.140671 -9.156625,38.737834,144.402557 -9.156648,38.737850,143.524750 -9.156675,38.737869,142.495209 -9.156697,38.737887,141.416870 -9.156711,38.737904,140.565475 -9.156734,38.737924,139.146805 -9.156758,38.737951,138.381241 -9.156782,38.737982,137.696671 -9.156805,38.738023,137.457626 -9.156820,38.738071,135.670486 -9.156842,38.738108,134.891022 -9.156861,38.738151,133.603027 -9.156882,38.738195,133.043869 -9.156906,38.738234,132.615616 -9.156930,38.738268,132.477341 -9.156955,38.738301,131.472137 -9.156977,38.738331,130.770096 -9.157006,38.738359,129.484894 -9.157025,38.738384,129.461578 -9.157040,38.738406,129.471024 -9.157055,38.738430,129.729385 -9.157079,38.738457,129.794601 -9.157103,38.738487,129.580704 -9.157131,38.738518,129.880569 -9.157170,38.738554,130.487976 -9.157195,38.738585,130.776779 -9.157218,38.738613,131.767334 -9.157242,38.738645,131.626740 -9.157273,38.738676,132.064163 -9.157310,38.738711,132.071625 -9.157352,38.738747,132.941925 -9.157400,38.738780,133.067444 -9.157455,38.738801,132.445923 -9.157515,38.738821,132.243484 -9.157591,38.738825,132.962662 -9.157665,38.738830,132.645981 -9.157751,38.738823,132.768692 -9.157831,38.738808,133.020004 -9.157910,38.738788,133.844589 -9.157986,38.738756,134.367111 -9.158064,38.738722,134.789703 -9.158141,38.738688,135.050903 -9.158213,38.738660,135.091339 -9.158286,38.738627,135.549850 -9.158362,38.738603,135.776505 -9.158427,38.738578,136.162674 -9.158492,38.738550,136.633820 -9.158557,38.738525,136.944550 -9.158634,38.738509,137.524460 -9.158689,38.738496,137.626022 -9.158743,38.738471,137.506042 -9.158799,38.738439,137.910889 -9.158867,38.738403,137.989029 -9.158954,38.738367,138.089844 -9.159071,38.738337,139.587982 -9.159166,38.738296,139.934586 -9.159257,38.738252,140.560623 -9.159351,38.738213,140.647171 -9.159450,38.738168,140.210175 -9.159538,38.738114,138.888672 -9.159628,38.738065,138.549225 -9.159711,38.738021,137.899704 -9.159801,38.737988,137.533539 -9.159900,38.737966,137.651733 -9.159985,38.737971,137.636169 -9.160099,38.737975,137.484589 -9.160235,38.737979,137.054016 -9.160380,38.738004,135.831512 -9.160495,38.738029,135.541946 -9.160611,38.738046,135.137756 -9.160723,38.738065,134.477097 -9.160834,38.738094,133.902069 -9.160954,38.738104,133.414032 -9.161085,38.738115,133.026138 -9.161222,38.738157,132.666275 -9.161346,38.738155,132.689438 -9.161469,38.738180,132.329422 -9.161595,38.738201,131.773636 -9.161729,38.738220,131.166901 -9.161850,38.738254,130.633942 -9.161957,38.738284,130.415588 -9.162044,38.738302,130.345200 -9.162096,38.738317,130.138229 -9.162128,38.738327,129.908890 -9.162148,38.738333,129.533463 -9.162158,38.738350,129.252060 -9.162159,38.738370,129.034607 -9.162154,38.738383,128.887756 -9.162157,38.738390,128.684082 -9.162162,38.738390,128.484268 -9.162218,38.738323,129.697525 -9.162224,38.738319,129.605331 -9.162230,38.738320,129.623169 -9.162232,38.738322,129.601593 -9.162233,38.738323,129.586777 -9.162234,38.738324,129.573685 -9.162235,38.738324,129.560654 -9.162236,38.738325,129.548401 -9.162237,38.738325,129.536057 -9.162237,38.738325,129.524933 -9.162238,38.738325,129.512711 -9.162238,38.738325,129.499603 -9.162239,38.738325,129.486313 -9.162239,38.738324,129.473282 -9.162239,38.738323,129.459930 -9.162239,38.738322,129.447128 -9.162239,38.738322,129.433670 -9.162239,38.738321,129.420853 -9.162238,38.738320,129.408646 -9.162238,38.738318,129.396912 -9.162238,38.738316,129.385544 -9.162237,38.738314,129.375504 -9.162238,38.738312,129.364700 -9.162238,38.738311,129.353714 -9.162237,38.738308,129.342209 -9.162237,38.738306,129.330856 -9.162237,38.738304,129.318283 -9.162237,38.738302,129.306030 -9.162237,38.738300,129.294388 -9.162237,38.738298,129.283203 -9.162237,38.738296,129.271423 -9.162237,38.738293,129.260056 -9.162237,38.738290,129.250839 -9.162237,38.738287,129.240707 -9.162239,38.738283,129.234512 -9.162244,38.738279,129.225342 -9.162262,38.738275,129.269989 -9.162314,38.738272,129.454330 -9.162383,38.738261,129.747223 -9.162452,38.738260,130.004471 -9.162519,38.738277,130.159500 -9.162593,38.738289,130.204071 -9.162683,38.738298,130.071106 -9.162787,38.738317,129.803421 -9.162903,38.738334,129.423920 -9.163017,38.738348,129.024872 -9.163132,38.738359,128.758636 -9.163251,38.738393,127.736435 -9.163377,38.738438,126.597839 -9.163514,38.738468,125.653587 -9.163649,38.738485,125.331131 -9.163816,38.738627,125.059280 -9.163951,38.738601,124.032036 -9.164112,38.738651,123.129044 -9.164262,38.738666,122.717285 -9.164409,38.738686,122.225914 -9.164550,38.738714,121.886574 -9.164691,38.738745,121.341820 -9.164834,38.738766,121.117523 -9.164980,38.738786,120.943985 -9.165130,38.738829,120.617210 -9.165284,38.738872,120.460144 -9.165434,38.738907,120.218658 -9.165583,38.738941,119.965645 -9.165723,38.738975,119.569603 -9.165853,38.739003,119.117104 -9.165978,38.739025,118.411537 -9.166101,38.739036,117.726456 -9.166235,38.739082,117.210526 -9.166364,38.739137,117.162941 -9.166490,38.739201,116.982742 -9.166604,38.739264,117.389679 -9.166698,38.739323,118.132439 -9.166796,38.739392,118.802391 -9.166884,38.739462,118.969887 -9.166909,38.739474,119.179665 -9.166933,38.739498,118.898941 -9.166950,38.739509,118.335304 -9.166965,38.739532,118.217606 -9.166979,38.739548,118.243561 -9.166993,38.739566,118.721748 -9.167012,38.739589,119.295708 -9.167033,38.739626,119.544212 -9.167056,38.739671,119.879280 -9.167086,38.739729,120.133751 -9.167113,38.739785,120.316345 -9.167114,38.739838,120.214554 -9.167096,38.739889,120.350388 -9.167078,38.739937,120.580330 -9.167082,38.739985,120.799988 -9.167086,38.740026,121.039642 -9.167092,38.740052,121.291382 -9.167099,38.740063,121.519424 -9.167112,38.740060,121.722717 -9.167121,38.740052,121.929443 -9.167126,38.740047,122.129974 -9.167122,38.740037,122.327927 -9.167106,38.740031,122.520500 -9.167104,38.740034,122.716278 -9.167109,38.740031,122.857018 -9.167112,38.740028,123.059441 -9.167114,38.740026,123.248352 -9.167116,38.740025,123.418625 -9.167120,38.740029,123.548859 -9.167127,38.740034,123.674561 -9.167136,38.740036,123.797768 -9.167147,38.740038,123.919022 -9.167509,38.740049,123.406654 -9.167521,38.740041,123.203125 -9.167451,38.740081,123.741325 -9.167455,38.740142,123.868759 -9.167539,38.740165,124.102226 -9.167589,38.740215,124.423744 -9.167609,38.740272,124.311768 -9.167622,38.740336,124.123604 -9.167667,38.740390,124.168533 -9.167708,38.740453,123.841873 -9.167741,38.740531,123.212524 -9.167780,38.740623,122.686287 -9.167842,38.740703,122.257668 -9.167880,38.740802,119.669724 -9.167952,38.740875,119.374298 -9.168015,38.740944,119.367905 -9.168067,38.740997,118.842865 -9.168067,38.741060,116.620728 -9.168083,38.741092,116.331825 -9.168098,38.741118,115.542923 -9.168107,38.741132,115.264229 -9.168109,38.741139,115.209892 -9.168117,38.741136,115.914093 -9.168110,38.741139,115.519951 -9.168106,38.741139,115.272575 -9.168106,38.741139,115.264671 -9.168106,38.741139,115.262276 -9.168105,38.741139,115.259705 -9.168105,38.741139,115.253227 -9.168105,38.741139,115.245132 -9.168105,38.741139,115.234612 -9.168105,38.741139,115.222160 -9.168104,38.741138,115.210915 -9.168104,38.741138,115.206482 -9.168104,38.741138,115.198219 -9.168104,38.741138,115.187622 -9.168104,38.741138,115.173813 -9.168104,38.741138,115.164536 -9.168104,38.741138,115.156944 -9.168103,38.741138,115.150002 -9.168103,38.741138,115.140915 -9.168103,38.741138,115.132019 -9.168103,38.741138,115.117653 -9.168103,38.741138,115.100189 -9.168103,38.741138,115.084770 -9.168103,38.741138,115.066673 -9.168103,38.741138,115.050835 -9.168103,38.741138,115.046425 -9.168103,38.741138,115.033493 -9.168103,38.741138,115.018616 -9.168103,38.741138,114.999207 -9.168103,38.741138,114.979820 -9.168103,38.741138,114.976486 -9.168103,38.741138,114.976845 -9.168103,38.741138,114.974457 -9.168103,38.741137,114.971413 -9.168103,38.741137,114.971176 -9.168104,38.741137,114.970863 -9.168104,38.741137,114.962646 -9.168104,38.741137,114.957352 -9.168104,38.741137,114.948143 -9.168104,38.741137,114.941238 -9.168104,38.741137,114.943466 -9.168104,38.741137,114.943436 -9.168105,38.741137,114.942818 -9.168105,38.741137,114.945442 -9.168105,38.741137,114.944267 -9.168105,38.741137,114.953407 -9.168105,38.741137,114.957924 -9.168105,38.741137,114.955391 -9.168105,38.741137,114.948631 -9.168106,38.741137,114.941032 -9.168106,38.741137,114.934853 -9.168106,38.741137,114.935860 -9.168106,38.741137,114.933975 -9.168106,38.741137,114.932274 -9.168106,38.741137,114.932411 -9.168106,38.741137,114.935181 -9.168107,38.741137,114.924210 -9.168107,38.741137,114.920708 -9.168107,38.741137,114.919540 -9.168107,38.741137,114.919579 -9.168107,38.741137,114.921768 -9.168107,38.741137,114.923592 -9.168107,38.741137,114.921913 -9.168107,38.741137,114.920700 -9.168107,38.741137,114.920853 -9.168107,38.741137,114.919258 -9.168107,38.741137,114.917458 -9.168107,38.741137,114.916008 -9.168107,38.741137,114.916405 -9.168107,38.741137,114.916550 -9.168107,38.741137,114.918961 -9.168107,38.741137,114.921799 -9.168107,38.741137,114.923393 -9.168107,38.741137,114.921272 -9.168107,38.741137,114.924225 -9.168118,38.741151,114.897987 -9.168148,38.741179,114.517494 -9.168186,38.741212,114.484528 -9.168222,38.741248,114.595085 -9.168262,38.741289,114.566093 -9.168307,38.741346,114.737984 -9.168355,38.741411,114.954880 -9.168401,38.741468,114.872246 -9.168447,38.741535,114.917381 -9.168494,38.741598,114.893318 -9.168552,38.741622,114.677376 -9.168614,38.741647,114.283386 -9.168675,38.741667,114.272652 -9.168744,38.741664,114.236481 -9.168815,38.741640,114.225555 -9.168898,38.741594,114.254654 -9.168979,38.741555,114.213638 -9.169061,38.741508,114.274986 -9.169137,38.741449,114.349342 -9.169205,38.741391,114.468506 -9.169277,38.741341,114.565208 -9.169358,38.741286,114.755043 -9.169460,38.741220,115.262863 -9.169563,38.741165,115.559479 -9.169669,38.741101,115.894829 -9.169794,38.741045,116.546295 -9.169930,38.740981,117.590401 -9.170056,38.740914,119.088989 -9.170166,38.740834,120.736633 -9.170272,38.740750,121.973328 -9.170366,38.740653,122.795990 -9.170458,38.740558,123.467400 -9.170542,38.740457,123.917366 -9.170627,38.740343,124.514999 -9.170705,38.740229,125.098763 -9.170788,38.740116,125.643089 -9.170866,38.740005,126.014435 -9.170939,38.739894,126.741539 -9.171010,38.739774,127.438850 -9.171072,38.739647,128.390701 -9.171132,38.739516,129.290283 -9.171186,38.739381,130.049667 -9.171241,38.739235,130.880508 -9.171293,38.739090,131.651794 -9.171338,38.738944,132.877991 -9.171369,38.738795,134.135803 -9.171400,38.738642,134.226929 -9.171418,38.738485,134.502914 -9.171436,38.738327,135.032364 -9.171447,38.738166,135.657684 -9.171442,38.738010,137.027756 -9.171426,38.737859,137.758713 -9.171400,38.737719,137.644348 -9.171367,38.737571,138.031769 -9.171331,38.737425,138.334030 -9.171282,38.737282,138.217545 -9.171228,38.737137,138.318970 -9.171168,38.736993,137.863632 -9.171104,38.736849,137.758102 -9.171028,38.736706,137.526230 -9.170938,38.736559,137.183517 -9.170841,38.736414,136.818146 -9.170739,38.736275,135.957886 -9.170626,38.736133,135.214050 -9.170506,38.735988,134.502716 -9.170379,38.735846,133.608429 -9.170255,38.735715,132.741226 -9.170129,38.735584,131.753433 -9.170001,38.735448,130.533432 -9.169871,38.735309,128.969116 -9.169734,38.735166,127.588890 -9.169596,38.735022,126.378082 -9.169464,38.734879,125.614349 -9.169333,38.734726,124.421951 -9.169209,38.734569,123.279114 -9.169090,38.734406,121.558517 -9.168980,38.734231,120.410210 -9.168888,38.734050,118.893135 -9.168806,38.733868,118.215286 -9.168745,38.733682,116.783752 -9.168704,38.733495,114.909538 -9.168686,38.733301,112.900070 -9.168677,38.733103,111.171143 -9.168689,38.732892,110.120232 -9.168725,38.732691,108.524582 -9.168768,38.732496,107.226212 -9.168838,38.732289,107.252899 -9.168920,38.732097,107.463737 -9.169021,38.731898,107.342972 -9.169130,38.731721,107.365791 -9.169252,38.731540,108.998177 -9.169375,38.731374,109.939064 -9.169495,38.731210,111.313179 -9.169611,38.731057,112.780174 -9.169722,38.730907,114.123070 -9.169828,38.730763,114.922264 -9.169934,38.730621,115.778908 -9.170045,38.730484,115.957474 -9.170159,38.730343,116.587494 -9.170275,38.730213,116.162109 -9.170402,38.730081,115.812798 -9.170540,38.729964,114.969650 -9.170696,38.729841,113.857948 -9.170850,38.729726,113.130188 -9.171013,38.729621,112.445023 -9.171174,38.729517,111.854515 -9.171335,38.729412,111.067879 -9.171498,38.729296,110.394577 -9.171642,38.729165,109.114418 -9.171772,38.729013,108.746361 -9.171872,38.728856,108.243958 -9.171961,38.728687,107.822067 -9.172040,38.728510,107.100143 -9.172110,38.728327,106.969009 -9.172180,38.728144,107.220932 -9.172259,38.727959,106.857002 -9.172333,38.727768,106.369614 -9.172412,38.727578,106.107765 -9.172490,38.727390,106.122932 -9.172565,38.727198,106.091461 -9.172641,38.727008,106.003670 -9.172717,38.726817,105.851723 -9.172796,38.726631,105.699867 -9.172870,38.726450,105.445824 -9.172936,38.726276,105.824463 -9.173005,38.726116,104.609001 -9.173074,38.725961,103.698364 -9.173143,38.725804,103.241470 -9.173214,38.725654,102.708420 -9.173303,38.725505,101.575943 -9.173409,38.725359,99.902290 -9.173525,38.725222,98.354378 -9.173674,38.725106,97.484161 -9.173835,38.724987,98.191307 -9.174001,38.724880,98.185585 -9.174167,38.724773,98.177277 -9.174332,38.724666,97.974937 -9.174500,38.724559,97.904388 -9.174667,38.724452,97.777985 -9.174835,38.724344,97.972275 -9.175003,38.724244,97.412666 -9.175165,38.724137,97.072701 -9.175316,38.724030,97.224976 -9.175454,38.723925,97.209290 -9.175577,38.723815,97.206932 -9.175685,38.723695,96.851120 -9.175782,38.723570,96.345779 -9.175859,38.723425,96.165833 -9.175931,38.723285,96.610893 -9.175992,38.723140,98.745857 -9.176035,38.722988,101.173149 -9.176106,38.722836,100.532318 -9.176166,38.722672,101.043823 -9.176227,38.722504,101.805908 -9.176291,38.722338,102.455864 -9.176357,38.722178,103.051186 -9.176418,38.722016,103.692421 -9.176486,38.721860,104.047028 -9.176551,38.721712,103.861923 -9.176601,38.721572,103.700890 -9.176650,38.721431,103.902428 -9.176689,38.721298,104.016434 -9.176712,38.721174,103.815338 -9.176738,38.721063,103.674194 -9.176763,38.720960,103.850006 -9.176795,38.720875,104.743446 -9.176840,38.720805,103.707565 -9.176918,38.720745,103.726906 -9.177010,38.720705,104.198586 -9.177118,38.720681,104.794304 -9.177238,38.720681,104.949280 -9.177367,38.720704,104.554581 -9.177485,38.720753,103.504181 -9.177559,38.720829,103.139999 -9.177614,38.720903,104.490456 -9.177663,38.720987,105.490059 -9.177696,38.721084,106.514885 -9.177707,38.721188,106.998428 -9.177711,38.721298,107.123062 -9.177714,38.721413,107.017899 -9.177697,38.721528,107.500603 -9.177659,38.721644,107.955124 -9.177601,38.721757,108.460617 -9.177515,38.721862,108.943558 -9.177410,38.721961,109.443535 -9.177282,38.722049,110.695000 -9.177149,38.722124,111.163589 -9.177018,38.722191,111.439049 -9.176890,38.722255,111.142433 -9.176781,38.722329,111.183517 -9.176676,38.722420,110.375023 -9.176587,38.722525,109.575157 -9.176513,38.722640,109.351570 -9.176446,38.722766,108.772820 -9.176377,38.722895,108.117508 -9.176306,38.723031,108.027267 -9.176238,38.723167,107.670517 -9.176174,38.723305,108.310303 -9.176129,38.723437,108.830574 -9.176085,38.723560,109.358665 -9.176051,38.723686,109.829201 -9.176045,38.723807,110.331421 -9.176068,38.723919,110.898979 -9.176119,38.724026,111.577118 -9.176187,38.724126,112.043633 -9.176272,38.724221,112.366959 -9.176379,38.724300,112.990608 -9.176504,38.724370,113.679527 -9.176650,38.724421,114.419426 -9.176804,38.724447,115.147522 -9.176963,38.724450,115.743484 -9.177123,38.724436,116.368164 -9.177299,38.724400,117.381775 -9.177465,38.724349,117.860962 -9.177613,38.724278,118.675293 -9.177767,38.724212,119.419685 -9.177926,38.724150,120.034843 -9.178085,38.724092,120.692955 -9.178254,38.724046,121.410629 -9.178437,38.724010,122.139435 -9.178620,38.723993,122.816971 -9.178799,38.723997,123.437592 -9.178976,38.724017,124.131638 -9.179156,38.724049,124.811806 -9.179330,38.724085,125.649811 -9.179512,38.724126,126.384827 -9.179687,38.724165,127.194290 -9.179872,38.724205,127.979332 -9.180048,38.724244,128.841278 -9.180224,38.724287,129.637222 -9.180403,38.724327,130.817261 -9.180584,38.724373,131.661713 -9.180766,38.724416,132.133804 -9.180948,38.724458,133.053757 -9.181127,38.724498,133.952286 -9.181305,38.724536,134.478729 -9.181487,38.724568,135.299683 -9.181670,38.724596,135.994949 -9.181854,38.724623,136.767532 -9.182042,38.724646,137.547363 -9.182228,38.724672,138.165314 -9.182419,38.724695,138.844803 -9.182613,38.724716,139.555283 -9.182812,38.724732,140.374176 -9.183016,38.724746,141.283127 -9.183219,38.724761,142.167816 -9.183417,38.724780,142.982468 -9.183617,38.724801,143.738388 -9.183819,38.724820,144.448257 -9.184020,38.724840,145.301636 -9.184217,38.724861,146.003647 -9.184414,38.724883,146.798126 -9.184604,38.724907,147.621384 -9.184793,38.724935,148.468140 -9.184986,38.724970,149.327301 -9.185178,38.725009,150.323196 -9.185369,38.725048,151.100983 -9.185560,38.725087,152.240494 -9.185751,38.725132,153.244003 -9.185947,38.725171,154.702316 -9.186140,38.725212,156.241348 -9.186332,38.725250,157.581070 -9.186524,38.725289,158.241318 -9.186719,38.725331,158.850845 -9.186917,38.725370,159.769882 -9.187106,38.725403,160.825516 -9.187298,38.725432,161.808655 -9.187498,38.725459,162.866699 -9.187697,38.725484,163.984467 -9.187891,38.725510,164.870331 -9.188090,38.725530,165.826126 -9.188292,38.725546,166.798431 -9.188493,38.725560,167.735992 -9.188695,38.725573,168.541183 -9.188898,38.725584,169.366455 -9.189102,38.725589,170.258224 -9.189309,38.725595,170.951370 -9.189518,38.725595,171.948029 -9.189725,38.725593,173.033691 -9.189925,38.725584,174.339508 -9.190119,38.725571,175.714462 -9.190320,38.725556,176.912659 -9.190524,38.725543,177.786240 -9.190730,38.725530,178.658783 -9.190935,38.725515,179.454987 -9.191142,38.725495,180.327148 -9.191348,38.725471,181.126617 -9.191560,38.725438,182.062500 -9.191771,38.725406,182.989059 -9.191985,38.725366,184.076385 -9.192198,38.725325,185.159760 -9.192412,38.725281,186.277832 -9.192630,38.725232,187.723541 -9.192850,38.725181,188.826813 -9.193066,38.725128,190.183899 -9.193280,38.725068,191.709579 -9.193506,38.725006,192.955124 -9.193734,38.724937,193.916473 -9.193953,38.724876,194.973434 -9.194183,38.724797,196.168869 -9.194419,38.724712,197.063583 -9.194649,38.724625,197.733978 -9.194881,38.724535,198.548615 -9.195112,38.724451,199.223648 -9.195347,38.724366,199.950836 -9.195586,38.724275,200.737549 -9.195832,38.724184,201.455414 -9.196077,38.724091,202.133347 -9.196318,38.724000,202.811951 -9.196546,38.723912,203.413284 -9.196769,38.723831,203.964218 -9.196994,38.723747,204.616989 -9.197228,38.723661,205.170471 -9.197469,38.723576,205.619110 -9.197720,38.723485,206.147995 -9.197977,38.723396,206.566162 -9.198232,38.723303,207.012573 -9.198498,38.723210,207.414658 -9.198767,38.723113,207.872665 -9.199039,38.723016,208.224106 -9.199304,38.722918,208.698029 -9.199569,38.722822,209.140717 -9.199832,38.722727,209.386246 -9.200094,38.722633,209.663086 -9.200359,38.722535,209.862167 -9.200630,38.722435,209.873627 -9.200908,38.722338,209.985260 -9.201200,38.722244,209.692383 -9.201488,38.722141,209.396835 -9.201772,38.722036,209.079605 -9.202056,38.721931,208.588013 -9.202338,38.721826,208.276184 -9.202619,38.721724,207.651413 -9.202901,38.721624,207.109344 -9.203181,38.721522,206.706451 -9.203468,38.721422,206.015854 -9.203768,38.721331,204.956604 -9.204077,38.721246,203.590164 -9.204388,38.721162,201.925858 -9.204700,38.721074,199.942078 -9.205010,38.720985,197.768906 -9.205322,38.720892,195.872833 -9.205631,38.720800,193.244705 -9.205939,38.720707,190.305313 -9.206253,38.720613,187.511353 -9.206565,38.720519,184.737686 -9.206877,38.720425,182.151093 -9.207186,38.720332,181.612015 -9.207495,38.720241,179.234421 -9.207805,38.720147,177.137939 -9.208107,38.720054,175.358841 -9.208404,38.719962,173.677872 -9.208699,38.719871,172.131912 -9.208990,38.719781,170.256897 -9.209289,38.719691,168.980988 -9.209585,38.719602,167.178711 -9.209885,38.719511,165.518555 -9.210173,38.719425,163.600357 -9.210460,38.719338,162.566528 -9.210742,38.719253,161.545303 -9.211025,38.719168,160.370438 -9.211307,38.719085,159.148483 -9.211587,38.719003,157.242844 -9.211858,38.718924,156.409470 -9.212133,38.718842,155.533081 -9.212409,38.718765,153.983505 -9.212689,38.718689,152.632050 -9.212971,38.718613,150.835907 -9.213241,38.718535,149.289902 -9.213515,38.718458,147.247910 -9.213797,38.718376,145.427628 -9.214080,38.718294,143.024368 -9.214361,38.718210,140.791763 -9.214644,38.718123,138.885590 -9.214928,38.718039,136.699982 -9.215202,38.717956,134.410248 -9.215482,38.717871,130.731033 -9.215762,38.717790,130.387970 -9.216050,38.717707,130.102417 -9.216340,38.717620,128.848892 -9.216632,38.717542,127.627785 -9.216933,38.717464,126.665192 -9.217234,38.717392,125.376297 -9.217524,38.717332,123.680756 -9.217822,38.717269,122.258026 -9.218131,38.717205,119.282295 -9.218440,38.717141,117.461441 -9.218741,38.717079,115.580750 -9.219044,38.717020,113.670486 -9.219350,38.716963,114.326271 -9.219668,38.716906,113.629143 -9.219982,38.716848,112.208366 -9.220288,38.716800,110.358421 -9.220601,38.716754,108.756897 -9.220916,38.716710,107.079437 -9.221238,38.716669,105.152420 -9.221562,38.716625,103.517342 -9.221892,38.716584,102.827591 -9.222220,38.716546,101.433357 -9.222538,38.716514,100.300285 -9.222854,38.716485,99.336861 -9.223176,38.716454,98.514427 -9.223496,38.716427,97.891808 -9.223825,38.716394,97.298737 -9.224148,38.716400,96.000084 -9.224483,38.716410,94.045364 -9.224799,38.716390,92.782158 -9.225123,38.716362,92.041916 -9.225447,38.716338,91.701225 -9.225773,38.716317,91.441147 -9.226095,38.716305,91.148758 -9.226415,38.716292,91.842865 -9.226732,38.716285,92.335487 -9.227046,38.716284,92.828865 -9.227358,38.716282,93.674652 -9.227675,38.716285,94.846848 -9.227985,38.716285,96.429214 -9.228290,38.716298,97.896805 -9.228595,38.716316,99.421745 -9.228901,38.716335,101.062683 -9.229201,38.716358,103.098145 -9.229496,38.716386,105.217445 -9.229785,38.716421,106.569939 -9.230071,38.716457,108.552864 -9.230359,38.716497,110.381866 -9.230644,38.716542,112.723892 -9.230927,38.716594,113.908028 -9.231202,38.716650,115.967827 -9.231471,38.716709,117.306725 -9.231742,38.716767,118.771652 -9.232017,38.716830,120.216019 -9.232290,38.716897,120.478920 -9.232554,38.716965,121.737381 -9.232813,38.717035,123.693977 -9.233064,38.717108,126.987617 -9.233316,38.717185,129.144058 -9.233567,38.717267,131.055511 -9.233814,38.717355,133.549301 -9.234058,38.717448,135.738708 -9.234301,38.717545,136.401627 -9.234552,38.717643,138.050690 -9.234801,38.717739,139.443008 -9.235047,38.717841,140.948914 -9.235293,38.717946,142.011200 -9.235536,38.718051,142.801712 -9.235781,38.718163,144.452393 -9.236025,38.718278,144.951569 -9.236263,38.718397,144.967163 -9.236511,38.718513,145.297791 -9.236764,38.718630,144.695831 -9.237022,38.718749,144.392334 -9.237275,38.718874,144.397095 -9.237534,38.718997,144.480179 -9.237807,38.719118,143.824677 -9.238080,38.719236,143.382980 -9.238355,38.719355,142.900803 -9.238631,38.719478,142.441818 -9.238907,38.719602,141.634705 -9.239184,38.719728,141.189102 -9.239457,38.719854,139.999802 -9.239735,38.719979,138.911987 -9.240020,38.720102,137.482391 -9.240308,38.720220,136.110229 -9.240598,38.720335,134.440247 -9.240883,38.720441,132.557907 -9.241174,38.720533,131.116318 -9.241477,38.720619,129.817734 -9.241781,38.720698,128.151794 -9.242090,38.720768,126.195389 -9.242400,38.720836,123.661903 -9.242723,38.720883,122.090958 -9.243043,38.720920,120.670494 -9.243375,38.720943,119.722694 -9.243707,38.720961,118.473495 -9.244032,38.720974,116.443787 -9.244359,38.720975,116.847855 -9.244677,38.720966,115.367462 -9.244998,38.720943,114.275673 -9.245318,38.720910,112.764832 -9.245637,38.720868,111.267891 -9.245966,38.720811,110.125809 -9.246289,38.720745,110.488480 -9.246610,38.720669,109.583359 -9.246932,38.720584,108.804192 -9.247238,38.720491,107.796036 -9.247535,38.720387,106.971329 -9.247826,38.720268,106.243797 -9.248116,38.720139,105.462135 -9.248400,38.720004,104.558945 -9.248689,38.719863,103.741364 -9.248968,38.719714,102.272026 -9.249230,38.719551,101.238907 -9.249479,38.719380,99.833382 -9.249723,38.719197,98.672302 -9.249953,38.719004,97.808922 -9.250180,38.718807,96.436325 -9.250398,38.718604,95.162285 -9.250601,38.718398,93.791512 -9.250793,38.718183,92.476395 -9.250980,38.717963,91.385239 -9.251158,38.717744,90.940514 -9.251339,38.717522,89.818535 -9.251519,38.717304,88.721306 -9.251697,38.717082,88.197601 -9.251871,38.716870,87.116966 -9.252045,38.716657,86.166435 -9.252221,38.716446,85.897507 -9.252395,38.716234,86.043793 -9.252565,38.716024,86.069519 -9.252733,38.715814,86.112953 -9.252907,38.715606,85.161484 -9.253087,38.715410,84.486450 -9.253280,38.715221,83.686813 -9.253490,38.715034,83.517578 -9.253709,38.714858,83.379601 -9.253950,38.714690,82.902710 -9.254203,38.714529,82.020515 -9.254473,38.714382,81.048866 -9.254743,38.714244,80.304237 -9.255020,38.714110,80.563408 -9.255309,38.713991,80.695160 -9.255606,38.713889,80.098091 -9.255912,38.713803,79.530235 -9.256228,38.713729,79.512283 -9.256543,38.713670,79.387924 -9.256866,38.713624,79.238541 -9.257192,38.713592,79.511673 -9.257517,38.713577,79.851143 -9.257843,38.713570,80.450233 -9.258164,38.713568,81.358765 -9.258480,38.713569,82.676010 -9.258791,38.713575,84.125587 -9.259103,38.713583,85.499283 -9.259397,38.713584,87.406784 -9.259684,38.713584,89.827858 -9.259962,38.713587,91.921387 -9.260237,38.713592,94.532829 -9.260513,38.713596,96.551193 -9.260787,38.713600,97.926605 -9.261054,38.713601,99.259117 -9.261320,38.713603,99.810806 -9.261581,38.713606,100.618347 -9.261841,38.713614,101.647545 -9.262101,38.713631,102.566269 -9.262369,38.713649,102.897324 -9.262633,38.713670,103.346008 -9.262896,38.713705,103.407333 -9.263163,38.713751,103.391312 -9.263432,38.713801,103.437065 -9.263699,38.713863,104.022018 -9.263971,38.713936,104.878052 -9.264239,38.714016,108.644218 -9.264514,38.714106,110.198708 -9.264788,38.714208,111.786758 -9.265064,38.714316,111.545151 -9.265346,38.714427,111.109810 -9.265626,38.714548,111.786133 -9.265904,38.714674,111.824760 -9.266185,38.714808,111.693382 -9.266462,38.714945,111.464943 -9.266744,38.715077,110.653664 -9.267026,38.715205,109.882576 -9.267309,38.715328,109.220573 -9.267596,38.715442,107.675026 -9.267885,38.715551,106.798676 -9.268161,38.715662,105.162613 -9.268442,38.715757,104.054962 -9.268743,38.715827,104.102211 -9.269057,38.715904,103.952385 -9.269376,38.715972,103.170891 -9.269698,38.716033,102.911087 -9.270020,38.716086,101.835342 -9.270343,38.716128,101.401779 -9.270669,38.716160,101.431801 -9.270999,38.716184,101.460541 -9.271325,38.716200,101.011726 -9.271646,38.716206,100.314919 -9.271971,38.716199,100.222267 -9.272293,38.716188,99.871468 -9.272615,38.716166,99.536621 -9.272934,38.716133,99.241661 -9.273248,38.716101,98.536789 -9.273566,38.716058,98.191582 -9.273885,38.716010,97.895805 -9.274206,38.715959,97.933563 -9.274519,38.715914,97.940117 -9.274830,38.715865,98.151283 -9.275141,38.715816,98.448463 -9.275447,38.715769,98.574921 -9.275748,38.715720,98.661469 -9.276047,38.715678,98.221115 -9.276341,38.715634,98.008751 -9.276623,38.715588,98.609833 -9.276896,38.715536,99.414467 -9.277170,38.715493,100.024277 -9.277447,38.715449,100.737938 -9.277716,38.715405,101.333725 -9.277984,38.715362,102.178627 -9.278247,38.715322,102.904274 -9.278501,38.715283,103.635345 -9.278742,38.715242,104.344543 -9.278983,38.715201,105.134048 -9.279225,38.715164,105.944626 -9.279463,38.715127,106.688416 -9.279697,38.715095,107.269615 -9.279937,38.715061,108.092133 -9.280175,38.715027,108.766998 -9.280410,38.714994,109.568314 -9.280647,38.714957,110.615334 -9.280878,38.714918,111.906174 -9.281108,38.714880,113.078384 -9.281340,38.714847,114.421478 -9.281568,38.714815,115.165733 -9.281796,38.714779,116.186485 -9.282021,38.714742,117.242165 -9.282243,38.714709,118.350464 -9.282459,38.714673,119.756050 -9.282677,38.714638,120.953674 -9.282891,38.714613,120.649406 -9.283102,38.714581,121.528488 -9.283317,38.714546,122.919594 -9.283532,38.714511,123.992043 -9.283749,38.714475,125.486069 -9.283964,38.714440,126.724060 -9.284181,38.714407,127.788696 -9.284400,38.714371,129.059525 -9.284624,38.714335,130.278137 -9.284845,38.714300,131.858429 -9.285063,38.714265,133.589676 -9.285278,38.714235,134.947113 -9.285495,38.714201,136.162338 -9.285720,38.714167,137.776749 -9.285942,38.714134,138.961258 -9.286177,38.714099,137.489212 -9.286406,38.714065,136.209991 -9.286635,38.714034,136.913635 -9.286860,38.714003,137.986145 -9.287094,38.713974,138.505539 -9.287331,38.713942,138.671448 -9.287568,38.713911,139.264694 -9.287801,38.713880,139.198334 -9.288032,38.713852,139.622437 -9.288273,38.713820,140.145020 -9.288528,38.713783,139.594666 -9.288780,38.713747,139.428482 -9.289035,38.713718,139.031982 -9.289297,38.713686,138.589417 -9.289554,38.713658,138.222473 -9.289809,38.713634,137.659958 -9.290069,38.713617,137.587555 -9.290320,38.713597,138.080978 -9.290564,38.713583,138.168869 -9.290797,38.713569,138.719681 -9.291026,38.713559,139.140732 -9.291252,38.713549,138.348709 -9.291469,38.713540,137.391876 -9.291676,38.713528,137.687134 -9.291877,38.713521,137.530304 -9.292075,38.713516,136.971512 -9.292263,38.713510,137.035095 -9.292433,38.713506,137.864609 -9.292604,38.713507,137.956039 -9.292780,38.713508,137.245453 -9.292963,38.713514,137.017654 -9.293151,38.713519,141.396683 -9.293351,38.713523,142.111160 -9.293562,38.713527,140.936569 -9.293781,38.713532,140.328079 -9.294006,38.713532,139.980515 -9.294231,38.713544,140.446976 -9.294458,38.713561,138.386948 -9.294678,38.713582,137.284256 -9.294898,38.713615,135.367722 -9.295111,38.713653,134.338013 -9.295313,38.713694,132.927414 -9.295507,38.713738,132.583420 -9.295685,38.713780,132.547867 -9.295843,38.713825,132.430206 -9.295984,38.713880,131.932053 -9.296107,38.713945,131.457260 -9.296203,38.714028,132.033340 -9.296261,38.714129,129.216354 -9.296312,38.714222,129.115402 -9.296325,38.714336,129.972153 -9.296308,38.714462,130.309998 -9.296283,38.714603,130.464859 -9.296247,38.714753,130.950256 -9.296214,38.714909,130.493683 -9.296171,38.715070,130.801697 -9.296132,38.715238,131.414139 -9.296094,38.715407,132.204025 -9.296066,38.715578,133.621429 -9.296057,38.715751,134.614456 -9.296053,38.715926,134.921829 -9.296052,38.716102,135.316620 -9.296054,38.716280,136.321259 -9.296062,38.716460,136.963165 -9.296071,38.716641,137.715836 -9.296079,38.716824,138.814789 -9.296085,38.717004,139.596680 -9.296089,38.717179,140.397583 -9.296092,38.717355,141.563690 -9.296097,38.717534,142.153381 -9.296100,38.717708,142.908966 -9.296103,38.717884,143.737579 -9.296111,38.718060,144.733475 -9.296120,38.718240,146.255219 -9.296122,38.718418,146.874832 -9.296134,38.718603,147.384644 -9.296148,38.718790,148.192627 -9.296151,38.718973,149.151459 -9.296156,38.719156,150.202957 -9.296161,38.719340,150.855286 -9.296161,38.719525,151.441559 -9.296161,38.719713,152.464310 -9.296165,38.719896,153.415161 -9.296169,38.720088,153.694763 -9.296175,38.720283,154.361343 -9.296175,38.720485,154.989334 -9.296185,38.720688,155.169373 -9.296190,38.720893,155.369186 -9.296196,38.721100,155.493744 -9.296208,38.721310,156.119110 -9.296217,38.721523,156.606125 -9.296224,38.721739,157.098633 -9.296233,38.721960,157.604233 -9.296242,38.722181,158.295822 -9.296244,38.722403,158.977890 -9.296251,38.722628,159.685684 -9.296257,38.722861,159.826080 -9.296264,38.723098,160.335892 -9.296269,38.723333,160.768753 -9.296276,38.723573,161.424500 -9.296284,38.723814,162.111923 -9.296289,38.724057,162.617599 -9.296298,38.724306,162.913544 -9.296308,38.724552,163.252716 -9.296316,38.724797,163.710953 -9.296314,38.725048,164.415680 -9.296305,38.725297,164.678391 -9.296288,38.725549,164.808884 -9.296260,38.725803,164.948090 -9.296231,38.726059,165.425735 -9.296200,38.726316,165.636353 -9.296168,38.726573,166.257034 -9.296134,38.726830,166.815353 -9.296099,38.727084,167.396301 -9.296071,38.727340,167.624176 -9.296045,38.727594,168.092804 -9.296023,38.727847,169.089828 -9.295998,38.728106,169.811035 -9.295976,38.728357,170.575378 -9.295955,38.728613,171.252106 -9.295934,38.728869,171.325226 -9.295915,38.729121,171.354172 -9.295917,38.729375,171.737991 -9.295936,38.729625,172.230377 -9.295972,38.729877,172.467316 -9.296028,38.730126,172.909348 -9.296096,38.730373,173.090103 -9.296183,38.730612,173.337631 -9.296284,38.730847,173.433960 -9.296401,38.731080,173.664200 -9.296536,38.731306,174.423553 -9.296684,38.731526,175.404480 -9.296827,38.731735,178.432449 -9.296978,38.731958,179.690643 -9.297136,38.732183,179.397125 -9.297293,38.732403,179.853928 -9.297435,38.732621,180.040390 -9.297570,38.732839,180.052307 -9.297694,38.733061,179.907196 -9.297812,38.733281,180.051147 -9.297914,38.733506,179.846939 -9.298003,38.733726,180.068863 -9.298079,38.733949,180.043655 -9.298133,38.734160,179.897919 -9.298183,38.734362,180.744095 -9.298218,38.734556,181.062149 -9.298243,38.734744,180.749283 -9.298269,38.734918,180.747711 -9.298293,38.735075,181.094910 -9.298307,38.735215,181.287415 -9.298319,38.735338,181.788635 -9.298329,38.735449,181.916855 -9.298325,38.735552,182.023727 -9.298291,38.735650,182.236740 -9.298249,38.735748,183.184494 -9.298210,38.735840,183.388458 -9.298194,38.735929,183.585464 -9.298207,38.736009,183.494781 -9.298247,38.736071,183.843414 -9.298307,38.736123,183.747665 -9.298386,38.736151,183.709961 -9.298488,38.736155,184.344254 -9.298598,38.736139,185.110397 -9.298687,38.736099,185.401581 -9.298758,38.736045,185.791199 -9.298828,38.735995,185.978485 -9.298907,38.735954,185.962570 -9.298999,38.735939,186.578339 -9.299098,38.735932,187.333817 -9.299203,38.735931,187.456619 -9.299329,38.735934,187.851074 -9.299464,38.735936,188.173264 -9.299607,38.735933,188.791946 -9.299763,38.735932,189.417236 -9.299925,38.735931,189.753464 -9.300081,38.735938,190.002411 -9.300242,38.735939,190.361557 -9.300394,38.735947,190.505066 -9.300528,38.735952,190.469116 -9.300641,38.735954,190.670166 -9.300735,38.735957,190.768280 -9.300810,38.735957,191.048584 -9.300868,38.735961,191.233002 -9.300917,38.735970,191.464539 -9.300944,38.735985,191.170425 -9.300954,38.736012,191.321259 -9.300957,38.736046,190.571365 -9.300958,38.736090,190.890884 -9.300964,38.736129,190.590729 -9.300971,38.736164,190.573013 -9.300994,38.736197,190.344345 -9.301031,38.736223,190.897141 -9.301076,38.736236,191.627029 -9.301131,38.736246,191.949600 -9.301186,38.736247,192.580170 -9.301244,38.736251,193.093155 -9.301316,38.736252,193.497543 -9.301399,38.736253,193.992813 -9.301497,38.736253,194.466080 -9.301595,38.736257,194.769455 -9.301686,38.736266,195.363876 -9.301774,38.736278,196.054016 -9.301846,38.736293,196.649109 -9.301911,38.736309,197.045349 -9.301973,38.736321,197.661255 -9.302031,38.736330,198.314438 -9.302071,38.736338,198.906601 -9.302085,38.736338,199.498825 -9.302083,38.736332,199.716522 -9.302078,38.736327,199.629272 -9.302072,38.736318,199.793442 -9.302067,38.736314,200.030502 -9.302059,38.736311,200.193649 -9.302045,38.736307,200.789490 -9.302029,38.736305,201.412262 -9.302017,38.736306,202.042496 -9.301998,38.736306,202.335770 -9.301971,38.736300,202.935181 -9.301949,38.736294,203.492722 -9.301923,38.736284,204.212280 -9.301903,38.736275,205.138428 -9.301902,38.736243,206.443497 -9.301886,38.736233,207.093704 -9.301861,38.736243,207.929230 -9.301829,38.736274,208.507629 -9.301809,38.736313,208.848877 -9.301796,38.736340,209.657593 -9.301782,38.736376,210.470108 -9.301779,38.736420,211.811874 -9.301766,38.736459,212.645126 -9.301744,38.736501,214.184906 -9.301743,38.736549,214.460876 -9.301742,38.736595,214.545135 -9.301734,38.736623,214.289200 -9.301731,38.736646,214.000320 -9.301743,38.736665,213.488617 -9.301755,38.736680,213.060394 -9.301766,38.736691,212.947311 -9.301770,38.736701,212.581345 -9.301770,38.736702,212.513245 -9.301770,38.736703,212.523148 -9.301770,38.736703,212.525635 -9.301770,38.736703,212.522934 -9.301770,38.736703,212.519363 -9.301770,38.736704,212.510361 -9.301769,38.736704,212.492447 -9.301769,38.736704,212.465836 -9.301769,38.736704,212.446991 -9.301769,38.736704,212.418884 -9.301769,38.736704,212.392639 -9.301769,38.736704,212.363953 -9.301769,38.736704,212.344452 -9.301769,38.736704,212.329590 -9.301769,38.736704,212.316422 -9.301769,38.736704,212.310547 -9.301768,38.736704,212.309555 -9.301769,38.736704,212.304459 -9.301769,38.736704,212.313278 -9.301769,38.736705,212.317154 -9.301769,38.736705,212.319824 -9.301768,38.736706,212.317856 -9.301768,38.736706,212.305786 -9.301768,38.736706,212.293365 </coordinates>
			</LineString>
		</Placemark>
	</Folder>
</Document>
</kml>